[{"OBJECT_NAME":"STARLINK-31618","OBJECT_ID":"2024-073T","EPOCH":"2025-08-14T04:57:23.281344","MEAN_MOTION":15.32537691,"ECCENTRICITY":0.0006284,"INCLINATION":43.0001,"RA_OF_ASC_NODE":48.0596,"ARG_OF_PERICENTER":271.2738,"MEAN_ANOMALY":88.7396,"EPHEMERIS_TYPE":0,"CLASSIFICATION_TYPE":"U","NORAD_CAT_ID":59528,"ELEMENT_SET_NO":999,"REV_AT_EPOCH":7446,"BSTAR":0.0033702,"MEAN_MOTION_DOT":0.00109509,"MEAN_MOTION_DDOT":0},{"OBJECT_NAME":"STARLINK-31513","OBJECT_ID":"2024-073U","EPOCH":"2025-08-14T13:14:42.216000","MEAN_MOTION":15.27575788,"ECCENTRICITY":0.0001825,"INCLINATION":43.0035,"RA_OF_ASC_NODE":44.5771,"ARG_OF_PERICENTER":270.3516,"MEAN_ANOMALY":89.7126,"EPHEMERIS_TYPE":0,"CLASSIFICATION_TYPE":"U","NORAD_CAT_ID":59529,"ELEMENT_SET_NO":999,"REV_AT_EPOCH":7453,"BSTAR":2.5744e-5,"MEAN_MOTION_DOT":4.46e-6,"MEAN_MOTION_DDOT":0},{"OBJECT_NAME":"STARLINK-31392","OBJECT_ID":"2024-073V","EPOCH":"2025-08-14T05:01:00.786432","MEAN_MOTION":15.2762135,"ECCENTRICITY":0.0001574,"INCLINATION":43,"RA_OF_ASC_NODE":49.7978,"ARG_OF_PERICENTER":265.1056,"MEAN_ANOMALY":94.9615,"EPHEMERIS_TYPE":0,"CLASSIFICATION_TYPE":"U","NORAD_CAT_ID":59530,"ELEMENT_SET_NO":999,"REV_AT_EPOCH":7444,"BSTAR":-0.00034209,"MEAN_MOTION_DOT":-9.676e-5,"MEAN_MOTION_DDOT":0},{"OBJECT_NAME":"STARLINK-31619","OBJECT_ID":"2024-073W","EPOCH":"2025-08-14T12:31:27.702624","MEAN_MOTION":15.27580149,"ECCENTRICITY":0.0001317,"INCLINATION":43.0002,"RA_OF_ASC_NODE":47.8503,"ARG_OF_PERICENTER":272.8406,"MEAN_ANOMALY":87.2295,"EPHEMERIS_TYPE":0,"CLASSIFICATION_TYPE":"U","NORAD_CAT_ID":59531,"ELEMENT_SET_NO":999,"REV_AT_EPOCH":7561,"BSTAR":6.7914e-5,"MEAN_MOTION_DOT":1.607e-5,"MEAN_MOTION_DDOT":0},{"OBJECT_NAME":"STARLINK-31624","OBJECT_ID":"2024-073X","EPOCH":"2025-08-13T18:48:50.383872","MEAN_MOTION":15.76809288,"ECCENTRICITY":0.0025888,"INCLINATION":42.9943,"RA_OF_ASC_NODE":20.0674,"ARG_OF_PERICENTER":323.8548,"MEAN_ANOMALY":175.504,"EPHEMERIS_TYPE":0,"CLASSIFICATION_TYPE":"U","NORAD_CAT_ID":59532,"ELEMENT_SET_NO":999,"REV_AT_EPOCH":7593,"BSTAR":0.005607,"MEAN_MOTION_DOT":0.01051008,"MEAN_MOTION_DDOT":0},{"OBJECT_NAME":"STARLINK-31509","OBJECT_ID":"2024-073Y","EPOCH":"2025-08-14T13:28:49.176192","MEAN_MOTION":15.27596014,"ECCENTRICITY":0.0001059,"INCLINATION":43.0032,"RA_OF_ASC_NODE":48.1589,"ARG_OF_PERICENTER":265.9831,"MEAN_ANOMALY":94.0899,"EPHEMERIS_TYPE":0,"CLASSIFICATION_TYPE":"U","NORAD_CAT_ID":59533,"ELEMENT_SET_NO":999,"REV_AT_EPOCH":7449,"BSTAR":-0.00013314,"MEAN_MOTION_DOT":-3.926e-5,"MEAN_MOTION_DDOT":0},{"OBJECT_NAME":"STARLINK-31734","OBJECT_ID":"2024-074A","EPOCH":"2025-08-13T21:55:39.061920","MEAN_MOTION":15.27580448,"ECCENTRICITY":0.0001171,"INCLINATION":43.0013,"RA_OF_ASC_NODE":66.0399,"ARG_OF_PERICENTER":267.2377,"MEAN_ANOMALY":92.8341,"EPHEMERIS_TYPE":0,"CLASSIFICATION_TYPE":"U","NORAD_CAT_ID":59534,"ELEMENT_SET_NO":999,"REV_AT_EPOCH":7436,"BSTAR":1.4861e-6,"MEAN_MOTION_DOT":-2.21e-6,"MEAN_MOTION_DDOT":0},{"OBJECT_NAME":"STARLINK-31738","OBJECT_ID":"2024-074B","EPOCH":"2025-08-14T06:10:54.798816","MEAN_MOTION":15.27583706,"ECCENTRICITY":0.0001584,"INCLINATION":42.9982,"RA_OF_ASC_NODE":71.1582,"ARG_OF_PERICENTER":283.0719,"MEAN_ANOMALY":76.9956,"EPHEMERIS_TYPE":0,"CLASSIFICATION_TYPE":"U","NORAD_CAT_ID":59535,"ELEMENT_SET_NO":999,"REV_AT_EPOCH":7433,"BSTAR":2.6161e-5,"MEAN_MOTION_DOT":4.58e-6,"MEAN_MOTION_DDOT":0},{"OBJECT_NAME":"STARLINK-31721","OBJECT_ID":"2024-074C","EPOCH":"2025-08-14T14:04:42.081888","MEAN_MOTION":15.27605245,"ECCENTRICITY":0.0001495,"INCLINATION":43.0015,"RA_OF_ASC_NODE":72.8682,"ARG_OF_PERICENTER":278.3902,"MEAN_ANOMALY":81.678,"EPHEMERIS_TYPE":0,"CLASSIFICATION_TYPE":"U","NORAD_CAT_ID":59536,"ELEMENT_SET_NO":999,"REV_AT_EPOCH":7434,"BSTAR":5.7753e-5,"MEAN_MOTION_DOT":1.329e-5,"MEAN_MOTION_DDOT":0},{"OBJECT_NAME":"STARLINK-31737","OBJECT_ID":"2024-074D","EPOCH":"2025-08-14T14:25:04.698048","MEAN_MOTION":15.27576084,"ECCENTRICITY":0.00011,"INCLINATION":43.0011,"RA_OF_ASC_NODE":72.9796,"ARG_OF_PERICENTER":275.2907,"MEAN_ANOMALY":84.7819,"EPHEMERIS_TYPE":0,"CLASSIFICATION_TYPE":"U","NORAD_CAT_ID":59537,"ELEMENT_SET_NO":999,"REV_AT_EPOCH":7434,"BSTAR":2.3834e-5,"MEAN_MOTION_DOT":3.94e-6,"MEAN_MOTION_DDOT":0},{"OBJECT_NAME":"STARLINK-31725","OBJECT_ID":"2024-074E","EPOCH":"2025-08-14T14:32:39.114528","MEAN_MOTION":15.27566214,"ECCENTRICITY":0.0002007,"INCLINATION":43.0039,"RA_OF_ASC_NODE":62.3565,"ARG_OF_PERICENTER":281.0627,"MEAN_ANOMALY":78.9999,"EPHEMERIS_TYPE":0,"CLASSIFICATION_TYPE":"U","NORAD_CAT_ID":59538,"ELEMENT_SET_NO":999,"REV_AT_EPOCH":7446,"BSTAR":5.6899e-5,"MEAN_MOTION_DOT":1.303e-5,"MEAN_MOTION_DDOT":0},{"OBJECT_NAME":"STARLINK-31539","OBJECT_ID":"2024-074F","EPOCH":"2025-08-14T14:41:43.592640","MEAN_MOTION":15.27558018,"ECCENTRICITY":0.000133,"INCLINATION":43.0024,"RA_OF_ASC_NODE":73.0649,"ARG_OF_PERICENTER":274.534,"MEAN_ANOMALY":85.536,"EPHEMERIS_TYPE":0,"CLASSIFICATION_TYPE":"U","NORAD_CAT_ID":59539,"ELEMENT_SET_NO":999,"REV_AT_EPOCH":7434,"BSTAR":0.0001845,"MEAN_MOTION_DOT":4.815e-5,"MEAN_MOTION_DDOT":0},{"OBJECT_NAME":"STARLINK-31397","OBJECT_ID":"2024-074G","EPOCH":"2025-08-14T15:02:05.377632","MEAN_MOTION":15.27571282,"ECCENTRICITY":0.0001121,"INCLINATION":43.0042,"RA_OF_ASC_NODE":73.1683,"ARG_OF_PERICENTER":275.9733,"MEAN_ANOMALY":84.0991,"EPHEMERIS_TYPE":0,"CLASSIFICATION_TYPE":"U","NORAD_CAT_ID":59540,"ELEMENT_SET_NO":999,"REV_AT_EPOCH":7434,"BSTAR":1.8508e-5,"MEAN_MOTION_DOT":2.47e-6,"MEAN_MOTION_DDOT":0},{"OBJECT_NAME":"STARLINK-31481","OBJECT_ID":"2024-074H","EPOCH":"2025-08-13T23:36:58.068288","MEAN_MOTION":15.27584039,"ECCENTRICITY":8.4e-5,"INCLINATION":43.0023,"RA_OF_ASC_NODE":76.0871,"ARG_OF_PERICENTER":250.4203,"MEAN_ANOMALY":109.6558,"EPHEMERIS_TYPE":0,"CLASSIFICATION_TYPE":"U","NORAD_CAT_ID":59541,"ELEMENT_SET_NO":999,"REV_AT_EPOCH":7425,"BSTAR":-4.3902e-5,"MEAN_MOTION_DOT":-1.47e-5,"MEAN_MOTION_DDOT":0},{"OBJECT_NAME":"STARLINK-31540","OBJECT_ID":"2024-074J","EPOCH":"2025-08-14T14:10:16.504320","MEAN_MOTION":15.27582362,"ECCENTRICITY":8.93e-5,"INCLINATION":42.9968,"RA_OF_ASC_NODE":72.8958,"ARG_OF_PERICENTER":279.8415,"MEAN_ANOMALY":80.2336,"EPHEMERIS_TYPE":0,"CLASSIFICATION_TYPE":"U","NORAD_CAT_ID":59542,"ELEMENT_SET_NO":999,"REV_AT_EPOCH":7434,"BSTAR":0.00045616,"MEAN_MOTION_DOT":0.00012312,"MEAN_MOTION_DDOT":0},{"OBJECT_NAME":"STARLINK-31574","OBJECT_ID":"2024-074K","EPOCH":"2025-08-14T14:47:16.914336","MEAN_MOTION":15.27574629,"ECCENTRICITY":8.56e-5,"INCLINATION":43.0017,"RA_OF_ASC_NODE":73.0882,"ARG_OF_PERICENTER":273.828,"MEAN_ANOMALY":86.2473,"EPHEMERIS_TYPE":0,"CLASSIFICATION_TYPE":"U","NORAD_CAT_ID":59543,"ELEMENT_SET_NO":999,"REV_AT_EPOCH":7434,"BSTAR":3.6015e-5,"MEAN_MOTION_DOT":7.29e-6,"MEAN_MOTION_DDOT":0},{"OBJECT_NAME":"STARLINK-31556","OBJECT_ID":"2024-074L","EPOCH":"2025-08-14T14:50:59.184384","MEAN_MOTION":15.27573728,"ECCENTRICITY":0.000148,"INCLINATION":43.0042,"RA_OF_ASC_NODE":73.1132,"ARG_OF_PERICENTER":264.314,"MEAN_ANOMALY":95.7543,"EPHEMERIS_TYPE":0,"CLASSIFICATION_TYPE":"U","NORAD_CAT_ID":59544,"ELEMENT_SET_NO":999,"REV_AT_EPOCH":7434,"BSTAR":0.00016425,"MEAN_MOTION_DOT":4.259e-5,"MEAN_MOTION_DDOT":0}]
