STARLINK-31618          
1 59528U 24073T   25226.20651946  .00109509  00000+0  33702-2 0  9995
2 59528  43.0001  48.0596 0006284 271.2738  88.7396 15.32537691 74465
STARLINK-31513          
1 59529U 24073U   25226.55187750  .00000446  00000+0  25744-4 0  9990
2 59529  43.0035  44.5771 0001825 270.3516  89.7126 15.27575788 74532
STARLINK-31392          
1 59530U 24073V   25226.20903688 -.00009676  00000+0 -34209-3 0  9991
2 59530  43.0000  49.7978 0001574 265.1056  94.9615 15.27621350 74442
STARLINK-31619          
1 59531U 24073W   25226.52184841  .00001607  00000+0  67914-4 0  9993
2 59531  43.0002  47.8503 0001317 272.8406  87.2295 15.27580149 75616
STARLINK-31624          
1 59532U 24073X   25225.78391648  .01051008  00000+0  56070-2 0  9996
2 59532  42.9943  20.0674 0025888 323.8548 175.5040 15.76809288 75930
STARLINK-31509          
1 59533U 24073Y   25226.56168028 -.00003926  00000+0 -13314-3 0  9990
2 59533  43.0032  48.1589 0001059 265.9831  94.0899 15.27596014 74496
STARLINK-31734          
1 59534U 24074A   25225.91364655 -.00000221  00000+0  14861-5 0  9998
2 59534  43.0013  66.0399 0001171 267.2377  92.8341 15.27580448 74367
STARLINK-31738          
1 59535U 24074B   25226.25757869  .00000458  00000+0  26161-4 0  9996
2 59535  42.9982  71.1582 0001584 283.0719  76.9956 15.27583706 74338
STARLINK-31721          
1 59536U 24074C   25226.58659817  .00001329  00000+0  57753-4 0  9996
2 59536  43.0015  72.8682 0001495 278.3902  81.6780 15.27605245 74341
STARLINK-31737          
1 59537U 24074D   25226.60074882  .00000394  00000+0  23834-4 0  9997
2 59537  43.0011  72.9796 0001100 275.2907  84.7819 15.27576084 74344
STARLINK-31725          
1 59538U 24074E   25226.60600827  .00001303  00000+0  56899-4 0  9990
2 59538  43.0039  62.3565 0002007 281.0627  78.9999 15.27566214 74464
STARLINK-31539          
1 59539U 24074F   25226.61231010  .00004815  00000+0  18450-3 0  9997
2 59539  43.0024  73.0649 0001330 274.5340  85.5360 15.27558018 74344
STARLINK-31397          
1 59540U 24074G   25226.62645113  .00000247  00000+0  18508-4 0  9993
2 59540  43.0042  73.1683 0001121 275.9733  84.0991 15.27571282 74346
STARLINK-31481          
1 59541U 24074H   25225.98400542 -.00001470  00000+0 -43902-4 0  9994
2 59541  43.0023  76.0871 0000840 250.4203 109.6558 15.27584039 74251
STARLINK-31540          
1 59542U 24074J   25226.59046880  .00012312  00000+0  45616-3 0  9992
2 59542  42.9968  72.8958 0000893 279.8415  80.2336 15.27582362 74341
STARLINK-31574          
1 59543U 24074K   25226.61616799  .00000729  00000+0  36015-4 0  9991
2 59543  43.0017  73.0882 0000856 273.8280  86.2473 15.27574629 74346
STARLINK-31556          
1 59544U 24074L   25226.61874056  .00004259  00000+0  16425-3 0  9998
2 59544  43.0042  73.1132 0001480 264.3140  95.7543 15.27573728 74340
